{"type": "FeatureCollection", "features": [ {"type": "Feature", "properties": {"norad_id": 34432, "name": "COSMOS 2251 DEB", "group": "cosmos-2251-debris", "lat": 48.77905753051059, "lon": 109.39616801143342, "alt_km": 943.1821956900931, "timestamp": "2025-12-19T16:54:44.657555+00:00", "meta": {"OBJECT_NAME": "COSMOS 2251 DEB", "OBJECT_ID": "1993-036RZ", "EPOCH": "2025-12-18T17:25:12.830880", "MEAN_MOTION": 14.02932815, "ECCENTRICITY": 0.01819996, "INCLINATION": 73.8292, "RA_OF_ASC_NODE": 91.7785, "ARG_OF_PERICENTER": 173.539, "MEAN_ANOMALY": 338.1006, "EPHEMERIS_TYPE": 0, "CLASSIFICATION_TYPE": "U", "NORAD_CAT_ID": 34432, "ELEMENT_SET_NO": 999, "REV_AT_EPOCH": 85768, "BSTAR": 0.00085279977, "MEAN_MOTION_DOT": 1.506e-05, "MEAN_MOTION_DDOT": 0}, "tle": {"line1": "1 34432U 93036RZ  25352.72584295  .00001506  00000+0  85280-3 0  9993", "line2": "2 34432  73.8292  91.7785 0181999 173.5390 338.1006 14.02932815857681"}}, "geometry": {"type": "Point", "coordinates": [109.39616801143342, 48.77905753051059]}}, {"type": "Feature", "properties": {"norad_id": 34433, "name": "COSMOS 2251 DEB", "group": "cosmos-2251-debris", "lat": -30.85836282552431, "lon": 132.73885834507763, "alt_km": 781.3147404632646, "timestamp": "2025-12-19T16:54:44.657567+00:00", "meta": {"OBJECT_NAME": "COSMOS 2251 DEB", "OBJECT_ID": "1993-036SA", "EPOCH": "2025-12-19T03:28:05.252736", "MEAN_MOTION": 14.12879554, "ECCENTRICITY": 0.01526606, "INCLINATION": 74.01, "RA_OF_ASC_NODE": 143.5956, "ARG_OF_PERICENTER": 280.3145, "MEAN_ANOMALY": 78.0815, "EPHEMERIS_TYPE": 0, "CLASSIFICATION_TYPE": "U", "NORAD_CAT_ID": 34433, "ELEMENT_SET_NO": 999, "REV_AT_EPOCH": 86040, "BSTAR": 0.00085624624, "MEAN_MOTION_DOT": 1.754e-05, "MEAN_MOTION_DDOT": 0}, "tle": {"line1": "1 34433U 93036SA  25353.14450524  .00001754  00000+0  85625-3 0  9996", "line2": "2 34433  74.0100 143.5956 0152660 280.3145  78.0815 14.12879554860400"}}, "geometry": {"type": "Point", "coordinates": [132.73885834507763, -30.85836282552431]}}, {"type": "Feature", "properties": {"norad_id": 34434, "name": "COSMOS 2251 DEB", "group": "cosmos-2251-debris", "lat": -2.3304157624969495, "lon": -2.3859633436191623, "alt_km": 1074.0025428740282, "timestamp": "2025-12-19T16:54:44.657577+00:00", "meta": {"OBJECT_NAME": "COSMOS 2251 DEB", "OBJECT_ID": "1993-036SB", "EPOCH": "2025-12-19T05:26:13.049952", "MEAN_MOTION": 13.89845222, "ECCENTRICITY": 0.02740517, "INCLINATION": 74.0623, "RA_OF_ASC_NODE": 359.0933, "ARG_OF_PERICENTER": 134.8518, "MEAN_ANOMALY": 353.5996, "EPHEMERIS_TYPE": 0, "CLASSIFICATION_TYPE": "U", "NORAD_CAT_ID": 34434, "ELEMENT_SET_NO": 999, "REV_AT_EPOCH": 84056, "BSTAR": 0.0013549191, "MEAN_MOTION_DOT": 2.233e-05, "MEAN_MOTION_DDOT": 0}, "tle": {"line1": "1 34434U 93036SB  25353.22653993  .00002233  00000+0  13549-2 0  9999", "line2": "2 34434  74.0623 359.0933 0274051 134.8518 353.5996 13.89845222840560"}}, "geometry": {"type": "Point", "coordinates": [-2.3859633436191623, -2.3304157624969495]}}, {"type": "Feature", "properties": {"norad_id": 34446, "name": "COSMOS 2251 DEB", "group": "cosmos-2251-debris", "lat": -54.731413835504554, "lon": -111.91307563236198, "alt_km": 714.8464616979072, "timestamp": "2025-12-19T16:54:44.657588+00:00", "meta": {"OBJECT_NAME": "COSMOS 2251 DEB", "OBJECT_ID": "1993-036SP", "EPOCH": "2025-12-19T05:52:48.702432", "MEAN_MOTION": 14.49359937, "ECCENTRICITY": 0.00508383, "INCLINATION": 74.0419, "RA_OF_ASC_NODE": 45.0824, "ARG_OF_PERICENTER": 181.5828, "MEAN_ANOMALY": 178.518, "EPHEMERIS_TYPE": 0, "CLASSIFICATION_TYPE": "U", "NORAD_CAT_ID": 34446, "ELEMENT_SET_NO": 999, "REV_AT_EPOCH": 88788, "BSTAR": 9.2699999e-05, "MEAN_MOTION_DOT": 3.32e-06, "MEAN_MOTION_DDOT": 0}, "tle": {"line1": "1 34446U 93036SP  25353.24500813  .00000332  00000+0  92700-4 0  9992", "line2": "2 34446  74.0419  45.0824 0050838 181.5828 178.5180 14.49359937887881"}}, "geometry": {"type": "Point", "coordinates": [-111.91307563236198, -54.731413835504554]}}, {"type": "Feature", "properties": {"norad_id": 34449, "name": "COSMOS 2251 DEB", "group": "cosmos-2251-debris", "lat": 74.02095248717417, "lon": 147.31573318356615, "alt_km": 558.4226657346044, "timestamp": "2025-12-19T16:54:44.657599+00:00", "meta": {"OBJECT_NAME": "COSMOS 2251 DEB", "OBJECT_ID": "1993-036SS", "EPOCH": "2025-12-19T05:31:05.790432", "MEAN_MOTION": 14.95222496, "ECCENTRICITY": 0.00227487, "INCLINATION": 74.0328, "RA_OF_ASC_NODE": 57.4655, "ARG_OF_PERICENTER": 95.9476, "MEAN_ANOMALY": 319.8524, "EPHEMERIS_TYPE": 0, "CLASSIFICATION_TYPE": "U", "NORAD_CAT_ID": 34449, "ELEMENT_SET_NO": 999, "REV_AT_EPOCH": 88790, "BSTAR": 0.0015082952, "MEAN_MOTION_DOT": 0.00016676, "MEAN_MOTION_DDOT": 0}, "tle": {"line1": "1 34449U 93036SS  25353.22992813  .00016676  00000+0  15083-2 0  9993", "line2": "2 34449  74.0328  57.4655 0022748  95.9476 319.8524 14.95222496887903"}}, "geometry": {"type": "Point", "coordinates": [147.31573318356615, 74.02095248717417]}}, {"type": "Feature", "properties": {"norad_id": 34451, "name": "COSMOS 2251 DEB", "group": "cosmos-2251-debris", "lat": 70.51767079480402, "lon": 127.77467697181933, "alt_km": 555.9644532608081, "timestamp": "2025-12-19T16:54:44.657610+00:00", "meta": {"OBJECT_NAME": "COSMOS 2251 DEB", "OBJECT_ID": "1993-036SU", "EPOCH": "2025-12-19T05:19:40.197792", "MEAN_MOTION": 14.95927956, "ECCENTRICITY": 0.00238334, "INCLINATION": 74.0467, "RA_OF_ASC_NODE": 74.7893, "ARG_OF_PERICENTER": 90.4585, "MEAN_ANOMALY": 269.9331, "EPHEMERIS_TYPE": 0, "CLASSIFICATION_TYPE": "U", "NORAD_CAT_ID": 34451, "ELEMENT_SET_NO": 999, "REV_AT_EPOCH": 88732, "BSTAR": 0.0016211605, "MEAN_MOTION_DOT": 0.00018267, "MEAN_MOTION_DDOT": 0}, "tle": {"line1": "1 34451U 93036SU  25353.22199303  .00018267  00000+0  16212-2 0  9992", "line2": "2 34451  74.0467  74.7893 0023833  90.4585 269.9331 14.95927956887323"}}, "geometry": {"type": "Point", "coordinates": [127.77467697181933, 70.51767079480402]}}, {"type": "Feature", "properties": {"norad_id": 34452, "name": "COSMOS 2251 DEB", "group": "cosmos-2251-debris", "lat": -27.748891522982678, "lon": -2.9327658483124615, "alt_km": 498.72062527044454, "timestamp": "2025-12-19T16:54:44.657620+00:00", "meta": {"OBJECT_NAME": "COSMOS 2251 DEB", "OBJECT_ID": "1993-036SV", "EPOCH": "2025-12-19T06:41:40.559424", "MEAN_MOTION": 15.11843497, "ECCENTRICITY": 0.00652423, "INCLINATION": 74.0326, "RA_OF_ASC_NODE": 169.2845, "ARG_OF_PERICENTER": 244.164, "MEAN_ANOMALY": 168.9456, "EPHEMERIS_TYPE": 0, "CLASSIFICATION_TYPE": "U", "NORAD_CAT_ID": 34452, "ELEMENT_SET_NO": 999, "REV_AT_EPOCH": 90761, "BSTAR": 0.00059119888, "MEAN_MOTION_DOT": 0.00010612, "MEAN_MOTION_DDOT": 0}, "tle": {"line1": "1 34452U 93036SV  25353.27894166  .00010612  00000+0  59120-3 0  9999", "line2": "2 34452  74.0326 169.2845 0065242 244.1640 168.9456 15.11843497907612"}}, "geometry": {"type": "Point", "coordinates": [-2.9327658483124615, -27.748891522982678]}}, {"type": "Feature", "properties": {"norad_id": 34454, "name": "COSMOS 2251 DEB", "group": "cosmos-2251-debris", "lat": -33.89990894491995, "lon": 95.88403803887648, "alt_km": 777.1546252652543, "timestamp": "2025-12-19T16:54:44.657631+00:00", "meta": {"OBJECT_NAME": "COSMOS 2251 DEB", "OBJECT_ID": "1993-036SX", "EPOCH": "2025-12-19T04:13:51.318624", "MEAN_MOTION": 14.38818703, "ECCENTRICITY": 0.00357961, "INCLINATION": 74.0588, "RA_OF_ASC_NODE": 265.7836, "ARG_OF_PERICENTER": 327.0772, "MEAN_ANOMALY": 32.8153, "EPHEMERIS_TYPE": 0, "CLASSIFICATION_TYPE": "U", "NORAD_CAT_ID": 34454, "ELEMENT_SET_NO": 999, "REV_AT_EPOCH": 88160, "BSTAR": 0.00018680463, "MEAN_MOTION_DOT": 5.52e-06, "MEAN_MOTION_DDOT": 0}, "tle": {"line1": "1 34454U 93036SX  25353.17628841  .00000552  00000+0  18680-3 0  9993", "line2": "2 34454  74.0588 265.7836 0035796 327.0772  32.8153 14.38818703881607"}}, "geometry": {"type": "Point", "coordinates": [95.88403803887648, -33.89990894491995]}}, {"type": "Feature", "properties": {"norad_id": 34459, "name": "COSMOS 2251 DEB", "group": "cosmos-2251-debris", "lat": -23.90833830666378, "lon": -125.25848419504834, "alt_km": 770.0226888253601, "timestamp": "2025-12-19T16:54:44.657641+00:00", "meta": {"OBJECT_NAME": "COSMOS 2251 DEB", "OBJECT_ID": "1993-036TC", "EPOCH": "2025-12-19T03:18:46.968768", "MEAN_MOTION": 14.00509806, "ECCENTRICITY": 0.01921149, "INCLINATION": 74.0788, "RA_OF_ASC_NODE": 242.9901, "ARG_OF_PERICENTER": 311.3354, "MEAN_ANOMALY": 47.1384, "EPHEMERIS_TYPE": 0, "CLASSIFICATION_TYPE": "U", "NORAD_CAT_ID": 34459, "ELEMENT_SET_NO": 999, "REV_AT_EPOCH": 85801, "BSTAR": 0.00029607439, "MEAN_MOTION_DOT": 4.91e-06, "MEAN_MOTION_DDOT": 0}, "tle": {"line1": "1 34459U 93036TC  25353.13804362  .00000491  00000+0  29607-3 0  9991", "line2": "2 34459  74.0788 242.9901 0192114 311.3354  47.1384 14.00509806858018"}}, "geometry": {"type": "Point", "coordinates": [-125.25848419504834, -23.90833830666378]}}, {"type": "Feature", "properties": {"norad_id": 34464, "name": "COSMOS 2251 DEB", "group": "cosmos-2251-debris", "lat": 53.54552380638737, "lon": 86.33571981983101, "alt_km": 486.6933251704013, "timestamp": "2025-12-19T16:54:44.657652+00:00", "meta": {"OBJECT_NAME": "COSMOS 2251 DEB", "OBJECT_ID": "1993-036TH", "EPOCH": "2025-12-18T15:31:16.660704", "MEAN_MOTION": 15.27880688, "ECCENTRICITY": 0.00151141, "INCLINATION": 73.9899, "RA_OF_ASC_NODE": 65.7127, "ARG_OF_PERICENTER": 246.9934, "MEAN_ANOMALY": 112.9673, "EPHEMERIS_TYPE": 0, "CLASSIFICATION_TYPE": "U", "NORAD_CAT_ID": 34464, "ELEMENT_SET_NO": 999, "REV_AT_EPOCH": 89930, "BSTAR": 0.0020725497, "MEAN_MOTION_DOT": 0.00057007, "MEAN_MOTION_DDOT": 0}, "tle": {"line1": "1 34464U 93036TH  25352.64672061  .00057007  00000+0  20725-2 0  9997", "line2": "2 34464  73.9899  65.7127 0015114 246.9934 112.9673 15.27880688899306"}}, "geometry": {"type": "Point", "coordinates": [86.33571981983101, 53.54552380638737]}}]}